{
  "type": "FeatureCollection",
  "features": [
    {
      "type": "Feature",
      "properties": {
        "norad_id": 66535,
        "name": "STARLINK-35514",
        "group": "last-30-days",
        "lat": 17.066852632690882,
        "lon": -132.10250857688172,
        "alt_km": 412.8855499323681,
        "timestamp": "2025-12-10T11:33:52.172024+00:00",
        "meta_object_name": "STARLINK-35514",
        "meta_object_id": "2025-265V",
        "meta_epoch": "2025-12-10T04:00:01.998720",
        "meta_mean_motion": 15.50589622,
        "meta_eccentricity": 0.00016,
        "meta_inclination": 43,
        "meta_ra_of_asc_node": 68.9774,
        "meta_arg_of_pericenter": 267.5985,
        "meta_mean_anomaly": 285.473,
        "meta_ephemeris_type": 0,
        "meta_classification_type": "U",
        "meta_norad_cat_id": 66535,
        "meta_element_set_no": 999,
        "meta_rev_at_epoch": 458,
        "meta_bstar": -0.0010533,
        "meta_mean_motion_dot": -0.00061672,
        "meta_mean_motion_ddot": 0,
        "tle_line1": "1 66535U 25265V   25344.16668980 -.00061672  00000+0 -10533-2 0  9994",
        "tle_line2": "2 66535  43.0000  68.9774 0001600 267.5985 285.4730 15.50589622  4583"
      },
      "geometry": {
        "type": "Point",
        "coordinates": [
          -132.10250857688172,
          17.066852632690882
        ]
      }
    },
    {
      "type": "Feature",
      "properties": {
        "norad_id": 66536,
        "name": "STARLINK-35640",
        "group": "last-30-days",
        "lat": 15.824727881976019,
        "lon": -130.580362241073,
        "alt_km": 413.16263226619776,
        "timestamp": "2025-12-10T11:33:52.172035+00:00",
        "meta_object_name": "STARLINK-35640",
        "meta_object_id": "2025-265W",
        "meta_epoch": "2025-12-10T04:00:01.998720",
        "meta_mean_motion": 15.50594891,
        "meta_eccentricity": 0.0001691,
        "meta_inclination": 42.9997,
        "meta_ra_of_asc_node": 68.9718,
        "meta_arg_of_pericenter": 272.441,
        "meta_mean_anomaly": 282.5482,
        "meta_ephemeris_type": 0,
        "meta_classification_type": "U",
        "meta_norad_cat_id": 66536,
        "meta_element_set_no": 999,
        "meta_rev_at_epoch": 456,
        "meta_bstar": -0.0012288,
        "meta_mean_motion_dot": -0.00071816,
        "meta_mean_motion_ddot": 0,
        "tle_line1": "1 66536U 25265W   25344.16668980 -.00071816  00000+0 -12288-2 0  9995",
        "tle_line2": "2 66536  42.9997  68.9718 0001691 272.4410 282.5482 15.50594891  4567"
      },
      "geometry": {
        "type": "Point",
        "coordinates": [
          -130.580362241073,
          15.824727881976019
        ]
      }
    },
    {
      "type": "Feature",
      "properties": {
        "norad_id": 66537,
        "name": "STARLINK-35582",
        "group": "last-30-days",
        "lat": 14.586238901358303,
        "lon": -129.09195495853618,
        "alt_km": 413.2064832494525,
        "timestamp": "2025-12-10T11:33:52.172045+00:00",
        "meta_object_name": "STARLINK-35582",
        "meta_object_id": "2025-265X",
        "meta_epoch": "2025-12-10T04:00:01.998720",
        "meta_mean_motion": 15.50548692,
        "meta_eccentricity": 0.0001633,
        "meta_inclination": 43.0001,
        "meta_ra_of_asc_node": 68.9676,
        "meta_arg_of_pericenter": 266.5386,
        "meta_mean_anomaly": 290.3783,
        "meta_ephemeris_type": 0,
        "meta_classification_type": "U",
        "meta_norad_cat_id": 66537,
        "meta_element_set_no": 999,
        "meta_rev_at_epoch": 458,
        "meta_bstar": -0.00010788,
        "meta_mean_motion_dot": -6.658e-05,
        "meta_mean_motion_ddot": 0,
        "tle_line1": "1 66537U 25265X   25344.16668980 -.00006658  00000+0 -10788-3 0  9992",
        "tle_line2": "2 66537  43.0001  68.9676 0001633 266.5386 290.3783 15.50548692  4582"
      },
      "geometry": {
        "type": "Point",
        "coordinates": [
          -129.09195495853618,
          14.586238901358303
        ]
      }
    },
    {
      "type": "Feature",
      "properties": {
        "norad_id": 66538,
        "name": "STARLINK-35577",
        "group": "last-30-days",
        "lat": 13.32085403812544,
        "lon": -127.60085726696491,
        "alt_km": 413.41663337640057,
        "timestamp": "2025-12-10T11:33:52.172057+00:00",
        "meta_object_name": "STARLINK-35577",
        "meta_object_id": "2025-265Y",
        "meta_epoch": "2025-12-10T04:00:01.998720",
        "meta_mean_motion": 15.50535172,
        "meta_eccentricity": 0.0001774,
        "meta_inclination": 43,
        "meta_ra_of_asc_node": 68.9627,
        "meta_arg_of_pericenter": 269.8675,
        "meta_mean_anomaly": 288.975,
        "meta_ephemeris_type": 0,
        "meta_classification_type": "U",
        "meta_norad_cat_id": 66538,
        "meta_element_set_no": 999,
        "meta_rev_at_epoch": 458,
        "meta_bstar": 0.00064211,
        "meta_mean_motion_dot": 0.0003745,
        "meta_mean_motion_ddot": 0,
        "tle_line1": "1 66538U 25265Y   25344.16668980  .00037450  00000+0  64211-3 0  9995",
        "tle_line2": "2 66538  43.0000  68.9627 0001774 269.8675 288.9750 15.50535172  4587"
      },
      "geometry": {
        "type": "Point",
        "coordinates": [
          -127.60085726696491,
          13.32085403812544
        ]
      }
    },
    {
      "type": "Feature",
      "properties": {
        "norad_id": 66539,
        "name": "STARLINK-35697",
        "group": "last-30-days",
        "lat": 12.055547151069009,
        "lon": -126.13554170869065,
        "alt_km": 413.6221383593138,
        "timestamp": "2025-12-10T11:33:52.172068+00:00",
        "meta_object_name": "STARLINK-35697",
        "meta_object_id": "2025-265Z",
        "meta_epoch": "2025-12-10T04:00:01.998720",
        "meta_mean_motion": 15.50535089,
        "meta_eccentricity": 0.0001764,
        "meta_inclination": 42.9999,
        "meta_ra_of_asc_node": 68.9577,
        "meta_arg_of_pericenter": 272.156,
        "meta_mean_anomaly": 288.5997,
        "meta_ephemeris_type": 0,
        "meta_classification_type": "U",
        "meta_norad_cat_id": 66539,
        "meta_element_set_no": 999,
        "meta_rev_at_epoch": 458,
        "meta_bstar": 0.00056305,
        "meta_mean_motion_dot": 0.00032777,
        "meta_mean_motion_ddot": 0,
        "tle_line1": "1 66539U 25265Z   25344.16668980  .00032777  00000+0  56305-3 0  9998",
        "tle_line2": "2 66539  42.9999  68.9577 0001764 272.1560 288.5997 15.50535089  4582"
      },
      "geometry": {
        "type": "Point",
        "coordinates": [
          -126.13554170869065,
          12.055547151069009
        ]
      }
    },
    {
      "type": "Feature",
      "properties": {
        "norad_id": 66540,
        "name": "STARLINK-35818",
        "group": "last-30-days",
        "lat": 10.768253193212812,
        "lon": -124.66828399625696,
        "alt_km": 413.80698904577,
        "timestamp": "2025-12-10T11:33:52.172080+00:00",
        "meta_object_name": "STARLINK-35818",
        "meta_object_id": "2025-265AA",
        "meta_epoch": "2025-12-10T04:00:01.998720",
        "meta_mean_motion": 15.50596393,
        "meta_eccentricity": 0.0001656,
        "meta_inclination": 42.9997,
        "meta_ra_of_asc_node": 68.9523,
        "meta_arg_of_pericenter": 273.7997,
        "meta_mean_anomaly": 288.8566,
        "meta_ephemeris_type": 0,
        "meta_classification_type": "U",
        "meta_norad_cat_id": 66540,
        "meta_element_set_no": 999,
        "meta_rev_at_epoch": 458,
        "meta_bstar": -0.0012552,
        "meta_mean_motion_dot": -0.00073337,
        "meta_mean_motion_ddot": 0,
        "tle_line1": "1 66540U 25265AA  25344.16668980 -.00073337  00000+0 -12552-2 0  9994",
        "tle_line2": "2 66540  42.9997  68.9523 0001656 273.7997 288.8566 15.50596393  4584"
      },
      "geometry": {
        "type": "Point",
        "coordinates": [
          -124.66828399625696,
          10.768253193212812
        ]
      }
    },
    {
      "type": "Feature",
      "properties": {
        "norad_id": 66541,
        "name": "STARLINK-35796",
        "group": "last-30-days",
        "lat": 9.48528708841875,
        "lon": -123.22565300447795,
        "alt_km": 413.92462611506744,
        "timestamp": "2025-12-10T11:33:52.172090+00:00",
        "meta_object_name": "STARLINK-35796",
        "meta_object_id": "2025-265AB",
        "meta_epoch": "2025-12-10T04:00:01.998720",
        "meta_mean_motion": 15.50595736,
        "meta_eccentricity": 0.000168,
        "meta_inclination": 42.9998,
        "meta_ra_of_asc_node": 68.9472,
        "meta_arg_of_pericenter": 271.5496,
        "meta_mean_anomaly": 293.0245,
        "meta_ephemeris_type": 0,
        "meta_classification_type": "U",
        "meta_norad_cat_id": 66541,
        "meta_element_set_no": 999,
        "meta_rev_at_epoch": 458,
        "meta_bstar": -0.0012401,
        "meta_mean_motion_dot": -0.0007247,
        "meta_mean_motion_ddot": 0,
        "tle_line1": "1 66541U 25265AB  25344.16668980 -.00072470  00000+0 -12401-2 0  9995",
        "tle_line2": "2 66541  42.9998  68.9472 0001680 271.5496 293.0245 15.50595736  4588"
      },
      "geometry": {
        "type": "Point",
        "coordinates": [
          -123.22565300447795,
          9.48528708841875
        ]
      }
    }
  ]
}